{
  "type": "FeatureCollection",
  "features": [
    {
      "type": "Feature",
      "properties": {
        "norad_id": 37836,
        "name": "EUTELSAT 16A",
        "group": "eutelsat",
        "lat": 0.06897192959071854,
        "lon": 56.687997866409894,
        "alt_km": 35809.14794157351,
        "timestamp": "2025-12-08T21:31:04.346479+00:00",
        "meta_object_name": "EUTELSAT 16A",
        "meta_object_id": "2011-057A",
        "meta_epoch": "2025-12-08T13:40:51.803328",
        "meta_mean_motion": 1.00270664,
        "meta_eccentricity": 0.00059264,
        "meta_inclination": 0.058,
        "meta_ra_of_asc_node": 359.5743,
        "meta_arg_of_pericenter": 261.8685,
        "meta_mean_anomaly": 37.3481,
        "meta_ephemeris_type": 0,
        "meta_classification_type": "U",
        "meta_norad_cat_id": 37836,
        "meta_element_set_no": 999,
        "meta_rev_at_epoch": 541,
        "meta_bstar": 0,
        "meta_mean_motion_dot": 1.06e-06,
        "meta_mean_motion_ddot": 0,
        "tle_line1": "1 37836U 11057A   25342.57004402  .00000106  00000+0  00000+0 0  9994",
        "tle_line2": "2 37836   0.0580 359.5743 0005926 261.8685  37.3481  1.00270664  5418"
      },
      "geometry": {
        "type": "Point",
        "coordinates": [
          56.687997866409894,
          0.06897192959071854
        ]
      }
    },
    {
      "type": "Feature",
      "properties": {
        "norad_id": 38992,
        "name": "EUTELSAT 21B",
        "group": "eutelsat",
        "lat": 0.08128144984832622,
        "lon": 62.270935356543696,
        "alt_km": 35798.913172139306,
        "timestamp": "2025-12-08T21:31:04.346492+00:00",
        "meta_object_name": "EUTELSAT 21B",
        "meta_object_id": "2012-062B",
        "meta_epoch": "2025-12-08T13:42:21.659328",
        "meta_mean_motion": 1.00270638,
        "meta_eccentricity": 0.00032415,
        "meta_inclination": 0.0662,
        "meta_ra_of_asc_node": 356.7386,
        "meta_arg_of_pericenter": 269.394,
        "meta_mean_anomaly": 38.6302,
        "meta_ephemeris_type": 0,
        "meta_classification_type": "U",
        "meta_norad_cat_id": 38992,
        "meta_element_set_no": 999,
        "meta_rev_at_epoch": 4791,
        "meta_bstar": 0,
        "meta_mean_motion_dot": 1.32e-06,
        "meta_mean_motion_ddot": 0,
        "tle_line1": "1 38992U 12062B   25342.57108402  .00000132  00000+0  00000+0 0  9999",
        "tle_line2": "2 38992   0.0662 356.7386 0003241 269.3940  38.6302  1.00270638 47918"
      },
      "geometry": {
        "type": "Point",
        "coordinates": [
          62.270935356543696,
          0.08128144984832622
        ]
      }
    },
    {
      "type": "Feature",
      "properties": {
        "norad_id": 39020,
        "name": "EUTELSAT 70B",
        "group": "eutelsat",
        "lat": 0.08164885065946305,
        "lon": 111.13919171368565,
        "alt_km": 35798.77631863423,
        "timestamp": "2025-12-08T21:31:04.346504+00:00",
        "meta_object_name": "EUTELSAT 70B",
        "meta_object_id": "2012-069A",
        "meta_epoch": "2025-12-08T13:56:20.319936",
        "meta_mean_motion": 1.00272089,
        "meta_eccentricity": 0.00043003,
        "meta_inclination": 0.0653,
        "meta_ra_of_asc_node": 13.4857,
        "meta_arg_of_pericenter": 232.2026,
        "meta_mean_anomaly": 111.4951,
        "meta_ephemeris_type": 0,
        "meta_classification_type": "U",
        "meta_norad_cat_id": 39020,
        "meta_element_set_no": 999,
        "meta_rev_at_epoch": 4759,
        "meta_bstar": 0,
        "meta_mean_motion_dot": -4.1e-07,
        "meta_mean_motion_ddot": 0,
        "tle_line1": "1 39020U 12069A   25342.58079074 -.00000041  00000+0  00000+0 0  9992",
        "tle_line2": "2 39020   0.0653  13.4857 0004300 232.2026 111.4951  1.00272089 47598"
      },
      "geometry": {
        "type": "Point",
        "coordinates": [
          111.13919171368565,
          0.08164885065946305
        ]
      }
    },
    {
      "type": "Feature",
      "properties": {
        "norad_id": 39122,
        "name": "EUTELSAT 117 WEST A",
        "group": "eutelsat",
        "lat": -0.029593257633200122,
        "lon": -76.12689588760233,
        "alt_km": 35774.46635701671,
        "timestamp": "2025-12-08T21:31:04.346516+00:00",
        "meta_object_name": "EUTELSAT 117 WEST A",
        "meta_object_id": "2013-012A",
        "meta_epoch": "2025-12-08T13:15:20.372832",
        "meta_mean_motion": 1.00270452,
        "meta_eccentricity": 0.00031076,
        "meta_inclination": 0.0132,
        "meta_ra_of_asc_node": 341.8623,
        "meta_arg_of_pericenter": 277.5668,
        "meta_mean_anomaly": 260.1625,
        "meta_ephemeris_type": 0,
        "meta_classification_type": "U",
        "meta_norad_cat_id": 39122,
        "meta_element_set_no": 999,
        "meta_rev_at_epoch": 4652,
        "meta_bstar": 0,
        "meta_mean_motion_dot": -1e-07,
        "meta_mean_motion_ddot": 0,
        "tle_line1": "1 39122U 13012A   25342.55231913 -.00000010  00000+0  00000+0 0  9999",
        "tle_line2": "2 39122   0.0132 341.8623 0003107 277.5668 260.1625  1.00270452 46524"
      },
      "geometry": {
        "type": "Point",
        "coordinates": [
          -76.12689588760233,
          -0.029593257633200122
        ]
      }
    },
    {
      "type": "Feature",
      "properties": {
        "norad_id": 39163,
        "name": "EUTELSAT 7B",
        "group": "eutelsat",
        "lat": 0.05836518657898736,
        "lon": 47.69780540429245,
        "alt_km": 35787.56136869078,
        "timestamp": "2025-12-08T21:31:04.346529+00:00",
        "meta_object_name": "EUTELSAT 7B",
        "meta_object_id": "2013-022A",
        "meta_epoch": "2025-12-08T13:38:07.066176",
        "meta_mean_motion": 1.00271279,
        "meta_eccentricity": 0.00045319,
        "meta_inclination": 0.0699,
        "meta_ra_of_asc_node": 12.6277,
        "meta_arg_of_pericenter": 301.171,
        "meta_mean_anomaly": 335.2897,
        "meta_ephemeris_type": 0,
        "meta_classification_type": "U",
        "meta_norad_cat_id": 39163,
        "meta_element_set_no": 999,
        "meta_rev_at_epoch": 4604,
        "meta_bstar": 0,
        "meta_mean_motion_dot": 5e-07,
        "meta_mean_motion_ddot": 0,
        "tle_line1": "1 39163U 13022A   25342.56813734  .00000050  00000+0  00000+0 0  9996",
        "tle_line2": "2 39163   0.0699  12.6277 0004531 301.1710 335.2897  1.00271279 46049"
      },
      "geometry": {
        "type": "Point",
        "coordinates": [
          47.69780540429245,
          0.05836518657898736
        ]
      }
    },
    {
      "type": "Feature",
      "properties": {
        "norad_id": 39612,
        "name": "EXPRESS-AT1",
        "group": "eutelsat",
        "lat": 0.03366052230224438,
        "lon": 96.65641079594272,
        "alt_km": 35785.6178734225,
        "timestamp": "2025-12-08T21:31:04.346540+00:00",
        "meta_object_name": "EXPRESS-AT1",
        "meta_object_id": "2014-010A",
        "meta_epoch": "2025-12-08T10:25:38.750592",
        "meta_mean_motion": 1.00271918,
        "meta_eccentricity": 3.624e-05,
        "meta_inclination": 0.0156,
        "meta_ra_of_asc_node": 341.1918,
        "meta_arg_of_pericenter": 190.863,
        "meta_mean_anomaly": 117.7973,
        "meta_ephemeris_type": 0,
        "meta_classification_type": "U",
        "meta_norad_cat_id": 39612,
        "meta_element_set_no": 999,
        "meta_rev_at_epoch": 4290,
        "meta_bstar": 0,
        "meta_mean_motion_dot": 0,
        "meta_mean_motion_ddot": 0,
        "tle_line1": "1 39612U 14010A   25342.43447628  .00000000  00000+0  00000+0 0  9999",
        "tle_line2": "2 39612   0.0156 341.1918 0000362 190.8630 117.7973  1.00271918 42909"
      },
      "geometry": {
        "type": "Point",
        "coordinates": [
          96.65641079594272,
          0.03366052230224438
        ]
      }
    },
    {
      "type": "Feature",
      "properties": {
        "norad_id": 39613,
        "name": "EXPRESS-AT2",
        "group": "eutelsat",
        "lat": -0.022585857382417522,
        "lon": -179.49536860325787,
        "alt_km": 35787.3104654204,
        "timestamp": "2025-12-08T21:31:04.346552+00:00",
        "meta_object_name": "EXPRESS-AT2",
        "meta_object_id": "2014-010B",
        "meta_epoch": "2025-12-08T14:21:02.471328",
        "meta_mean_motion": 1.00272566,
        "meta_eccentricity": 0.00015757,
        "meta_inclination": 0.0176,
        "meta_ra_of_asc_node": 307.4911,
        "meta_arg_of_pericenter": 335.418,
        "meta_mean_anomaly": 149.8145,
        "meta_ephemeris_type": 0,
        "meta_classification_type": "U",
        "meta_norad_cat_id": 39613,
        "meta_element_set_no": 999,
        "meta_rev_at_epoch": 4258,
        "meta_bstar": 0,
        "meta_mean_motion_dot": -2.79e-06,
        "meta_mean_motion_ddot": 0,
        "tle_line1": "1 39613U 14010B   25342.59794527 -.00000279  00000+0  00000+0 0  9999",
        "tle_line2": "2 39613   0.0176 307.4911 0001575 335.4180 149.8145  1.00272566 42585"
      },
      "geometry": {
        "type": "Point",
        "coordinates": [
          -179.49536860325787,
          -0.022585857382417522
        ]
      }
    }
  ]
}